#dP2024  6 17  0  0  0.00000000      96 __u+U IGS20 FIT  IAC
## 2319  86400.00000000   900.00000000 60478 0.0000000000000
+   54   G02G03G04G05G06G07G08G09G10G11G12G13G14G15G16G17G18
+        G19G20G21G22G23G24G25G26G27G28G29G30G31G32R01R02R03
+        R04R05R07R08R09R11R12R13R14R15R16R17R18R19R20R21R22
+        R24R25R26  0  0  0  0  0  0  0  0  0  0  0  0  0  0
+          0  0  0  0  0  0  0  0  0  0  0  0  0  0  0  0  0
++         5  5  6  8  8  7  7  6  7  7  7  6  7  6  6  6  6
++         5  9  6  7  7  5  6  7  6  6  6  6  6  6  7  7  7
++         7  6  6  6  5  4  6  6  5  6  7  7  7  7  7  6  6
++         7  6  6  0  0  0  0  0  0  0  0  0  0  0  0  0  0
++         0  0  0  0  0  0  0  0  0  0  0  0  0  0  0  0  0
%c M  cc GPS ccc cccc cccc cccc cccc ccccc ccccc ccccc ccccc
%c cc cc ccc ccc cccc cccc cccc cccc ccccc ccccc ccccc ccccc
%f  0.0000000  0.000000000  0.00000000000  0.000000000000000
%f  0.0000000  0.000000000  0.00000000000  0.000000000000000
%i    0    0    0    0      0      0      0      0         0
%i    0    0    0    0      0      0      0      0         0
/* INFORMATION & ANALYSIS CENTER (IAC)      ULTRA-RAPID DATA
/* S/V CLOCKS ARE ALIGNED TO GNSS TIME                      
/* G:C1WC2W R:C1PC2P E:C1XC5X C:C2IC6I J:C1CC2S             
/* PCV:IGS20_2317 OL/AL:FES2004  NONE     YN ORB:CoN CLK:CoN
*  2024 06 17  3 30  0.00000000
PG02 -22761.637517 -13724.756201   3234.802506   -416.286988
PG03 -13128.952316  -7687.435155  21627.943863    417.070530
PG04 -22530.289247  -3040.761371  13862.043137    384.817160
PG05   6581.743654  21682.831287 -13965.941768   -176.590034
PG06  -4379.708472  15006.828232  21512.518003    214.223207
PG07 -19710.477556   -467.690308 -17489.247574    -91.022154
PG08 -14521.159996  -9755.814493 -20209.900620    233.348420
PG09 -25370.308594   7328.485325   3016.971808    237.708644
PG10  10488.167134 -22316.333265  -9219.417992    -44.583762
PG11   8281.611476  21092.609391  13924.381373   -687.050278
PG12  12116.266953  10790.246187  20757.825186   -514.741466
PG13   5247.020654  14278.587030 -21995.817519    658.452400
PG14 -13206.634313  19346.897710 -12276.194448    427.258014
PG15  15569.432058   8625.405511 -20268.825845    170.994988
PG16  -1996.491107 -23587.124065 -11908.354556   -262.163917
PG17 -20463.841454  13522.139545  10811.729292    693.395307
PG18  18848.415043   -258.468661 -18780.835174   -625.886748
PG19 -12830.812988  15207.199596  17217.086381    497.514624
PG20   2611.381883  26190.240715  -4064.979010    373.757633
PG21 -21147.487616 -16804.291268  -2016.637007    114.956106
PG22  -9948.936891  24369.499414  -4156.517874    -28.272314
PG23  14479.780853 -12424.337084 -18366.510631    252.161634
PG24  21893.210982  15428.491870     -8.107783   -478.196549
PG25  15479.846715   -590.994707  21218.974983    497.442792
PG26   4251.098914 -25925.992221   1980.527471    135.698762
PG27  -2527.798500 -15269.203974 -21842.744921    -28.472915
PG28   6543.562146 -14063.461869  21550.341325   -292.224781
PG29  25832.059799  -2851.380653   5727.611034   -593.872660
PG30 -12148.524427  10168.237844 -21183.980013   -373.005819
PG31  -3790.530524 -19663.676810  17033.618917   -227.352297
PG32  17895.261670 -15447.660486  12117.948082   -615.979551
PR01 -17420.346223  18250.983866  -3694.900903     88.632672
PR02  -6268.141399  16483.949960 -18411.667070    -23.320913
PR03   9440.836720   6008.650994 -22870.077209    102.227548
PR04  19401.140524  -7446.022428 -14754.703904    241.450037
PR05  19121.900100 -16817.707027   1300.442689    133.206225
PR07 -10133.765953  -5387.572349  22826.151565     84.726297
PR08 -19487.363298   7694.563414  14632.933626     -5.052852
PR09  -3693.604290 -25008.253919   3755.865071    192.643374
PR11 -11663.795273  -4372.391671 -22248.924598     21.170427
PR12  -6046.277491  16101.992437 -18811.962598     41.404272
PR13   2002.109590  24630.040054  -6335.958765    -48.417610
PR14  10416.962287  19267.157062  13071.275330     26.596247
PR15  11587.970458   2594.357123  22598.167372     78.741888
PR16   5974.419790 -15923.307582  19041.305070     26.555769
PR17  20742.413873  11806.347910   9064.178639     96.527465
PR18  23806.979869   5227.019203  -7434.931367    147.402469
PR19  16398.350777  -2688.223226 -19361.949730   -280.600256
PR20  -4409.308920 -12353.469939 -21883.163309   -114.642210
PR21 -20435.742163 -12019.119225  -9379.189629   -109.906398
PR22 -23518.687440  -5043.904248   8527.888537    101.736563
PR24   5348.353347  12680.766036  21491.162194    -60.154245
PR25 -20345.806427 -12640.866955  -8738.274153    -61.441867
PR26 -18984.813413   6822.833828  15615.186920     -6.145180
*  2024 06 17  3 45  0.00000000
PG02 -22770.445952 -13986.912965    393.536991   -416.280415
PG03 -12697.717276 -10107.846596  20893.079069    417.086590
PG04 -20982.827606  -3758.004570  15947.641589    384.824494
PG05   6246.977418  23094.257701 -11623.487176   -176.590928
PG06  -6307.269237  13454.577860  22064.568642    214.204082
PG07 -21144.209885  -1839.796578 -15727.693877    -91.013168
PG08 -12401.640047 -10733.671886 -21073.621688    233.364692
PG09 -24993.407083   6897.580140   5806.048838    237.721871
PG10  10485.035997 -21064.941421 -11785.349162    -44.591208
PG11   6891.468625  20089.097058  16007.823607   -687.057416
PG12  11504.187280  13086.662260  19779.749883   -514.744221
PG13   2838.685416  14833.069325 -22051.389827    658.454844
PG14 -13175.236706  17779.613371 -14493.705517    427.266213
PG15  13642.718853   9829.395554 -21095.866264    170.998752
PG16  -1476.665168 -24683.304708  -9392.289299   -262.154765
PG17 -21503.370033  13654.568014   8231.496354    693.390087
PG18  20345.306442   1142.505232 -17131.612739   -625.891053
PG19 -14715.413548  15529.041220  15301.463530    497.519757
PG20   2357.465826  26505.881163  -1252.333870    373.757368
PG21 -20695.148596 -16715.921056  -4779.785059    114.953760
PG22 -10008.423934  23658.165816  -6902.862992    -28.276547
PG23  14312.080289 -10237.694644 -19806.899407    252.169914
PG24  21634.578912  15615.723233  -2779.125171   -478.198752
PG25  15165.144392   1903.496959  21389.126917    497.443285
PG26   4585.254847 -25492.142172   4761.479422    135.693082
PG27   -262.181169 -16105.318838 -21337.837267    -28.474026
PG28   8536.578686 -12586.753353  21764.882694   -292.239766
PG29  25113.184669  -2418.674017   8442.477525   -593.871214
PG30 -14018.404445   8605.412928 -20744.125653   -373.000166
PG31  -2073.477322 -18450.907957  18628.088959   -227.352146
PG32  19114.239235 -15689.771205   9631.107245   -615.978389
PR01 -17504.231278  18535.960896   -495.056057     88.633213
PR02  -7788.309918  18007.637761 -16292.493359    -23.320903
PR03   7339.975919   7930.210085 -23058.681987    102.228099
PR04  17849.646928  -6221.248541 -17091.452716    241.451645
PR05  18972.240880 -16924.279097  -1928.206455    133.207399
PR07  -8039.727062  -7284.758849  23127.821029     84.727994
PR08 -17975.324355   6474.839693  16978.035776     -5.053084
PR09  -3622.476222 -24355.931181   6847.889049    192.646304
PR11 -12328.383142  -6973.345090 -21205.266384     21.169083
PR12  -6524.185253  13719.496706 -20464.612220     41.405231
PR13   1893.645237  23662.072666  -9346.595166    -48.417763
PR14  10848.069817  20645.643374  10321.628975     26.596734
PR15  12230.100574   5249.964246  21782.472214     78.741801
PR16   6455.481747 -13523.672429  20668.108103     26.556383
PR17  19560.725633  11247.337819  11941.559801     96.530346
PR18  24558.470076   5271.339884  -4298.588115    147.403990
PR19  18574.484451  -2032.075529 -17374.553537   -280.600695
PR20  -1842.526389 -11337.157615 -22778.423992   -114.643564
PR21 -19222.409699 -11432.992483 -12244.111976   -109.909146
PR22 -24376.468996  -5202.313971   5468.000323    101.732177
PR24   2782.851188  11810.078920  22449.962229    -60.155273
PR25 -19209.373929 -12087.852489 -11619.517357    -61.469889
PR26 -17397.374659   5502.727932  17833.113579     -6.144337
EOF
